[{"OBJECT_NAME":"STARLINK-4035","OBJECT_ID":"2022-053AL","EPOCH":"2026-03-09T12:48:49.519872","MEAN_MOTION":15.08843322,"ECCENTRICITY":0.00014308,"INCLINATION":53.2171,"RA_OF_ASC_NODE":144.8198,"ARG_OF_PERICENTER":81.5043,"MEAN_ANOMALY":278.6111,"EPHEMERIS_TYPE":0,"CLASSIFICATION_TYPE":"U","NORAD_CAT_ID":52690,"ELEMENT_SET_NO":999,"REV_AT_EPOCH":21109,"BSTAR":5.4925046e-5,"MEAN_MOTION_DOT":5.86e-6,"MEAN_MOTION_DDOT":0},{"OBJECT_NAME":"COSMOS 397 DEB","OBJECT_ID":"1971-015DW","EPOCH":"2026-03-09T03:04:47.479584","MEAN_MOTION":14.84951431,"ECCENTRICITY":0.01922698,"INCLINATION":65.6672,"RA_OF_ASC_NODE":330.2096,"ARG_OF_PERICENTER":116.44,"MEAN_ANOMALY":245.6588,"EPHEMERIS_TYPE":0,"CLASSIFICATION_TYPE":"U","NORAD_CAT_ID":21723,"ELEMENT_SET_NO":999,"REV_AT_EPOCH":75672,"BSTAR":0.0022623994,"MEAN_MOTION_DOT":0.00026928,"MEAN_MOTION_DDOT":0}]
